#aV2010 10  1  0  0   .00000000      96 DD+AD WGS84 FIT  NGA
## 1603 432000.00000000   900.00000000 55470  .0000000000000
+   32     1  2  3  4  5  6  7  8  9 10 11 12 13 14 15 16 17
+         18 19 20 21 22 23 24 25 26 27 28 29 30 31 32  0  0
+          0  0  0  0  0  0  0  0  0  0  0  0  0  0  0  0  0
+          0  0  0  0  0  0  0  0  0  0  0  0  0  0  0  0  0
+          0  0  0  0  0  0  0  0  0  0  0  0  0  0  0  0  0
++         0  0  0  0  0  0  0  0  0  0  0  0  0  0  0  0  0
++         0  0  0  0  0  0  0  0  0  0  0  0  0  0  0  0  0
++         0  0  0  0  0  0  0  0  0  0  0  0  0  0  0  0  0
++         0  0  0  0  0  0  0  0  0  0  0  0  0  0  0  0  0
++         0  0  0  0  0  0  0  0  0  0  0  0  0  0  0  0  0
%c cc cc ccc ccc cccc cccc cccc cccc ccccc ccccc ccccc ccccc
%c cc cc ccc ccc cccc cccc cccc cccc ccccc ccccc ccccc ccccc
%f  0.0000000  0.000000000  0.00000000000  0.000000000000000
%f  0.0000000  0.000000000  0.00000000000  0.000000000000000
%i    0    0    0    0      0      0      0      0         0
%i    0    0    0    0      0      0      0      0         0
/*      NGA, ST. LOUIS,MO.                                  
/*   EPHEMERIS COMPUTED FROM  3 DAYS OF DATA                
/* CCCCCCCCCCCCCCCCCCCCCCCCCCCCCCCCCCCCCCCCCCCCCCCCCCCCCCCCC
/* CCCCCCCCCCCCCCCCCCCCCCCCCCCCCCCCCCCCCCCCCCCCCCCCCCCCCCCCC
*  2010 10  1 13  0   .00000000                                                 
P  1  12940.943087  -7767.761273  21739.776773   -168.024047                    
V  1  16402.688705  22530.640615  -1582.078807      -.037852                    
P  2 -16764.801203  13360.960307  15372.075733    292.434645                    
V  2 -19955.626835   -305.018594 -21961.159993       .027096                    
P  3   9299.106627 -24530.395943   2348.721678    615.704098                    
V  3   2967.638142   4553.295657  31026.370597       .051464                    
P  4 -25326.237486   6589.296314   5365.899004    183.156750                    
V  4  -7284.141303  -2377.967502 -30048.518998       .093908                    
P  5  -2643.800024  18666.793681  18661.107824    -44.675415                    
V  5 -15292.331175 -18254.984494  16173.248302      -.057723                    
P  6  13814.614185 -21513.281385   7016.317368    472.405790                    
V  6    167.985569   9463.408918  29549.292374      -.145724                    
P  7 -22275.117403  -6663.335863  13016.589439     -1.624047                    
V  7  16172.416342  -3462.090574  25700.107244       .001968                    
P  8 -26796.245235   -415.991968   1873.083676      6.817069                    
V  8   2294.550992  -1342.386459  31999.445077       .000890                    
P  9   3623.804773  14623.462184 -22420.302775     33.784795                    
V  9 -26847.126817   3635.017907  -2002.643355       .023457                    
P 10 -14480.142048   5804.370103  21335.271408    -53.973341                    
V 10 -15492.426751 -22769.414631  -3931.600427      -.011899                    
P 11 -10353.731780 -13921.656975 -20448.854374    -93.453089                    
V 11  23848.729568  -9386.076495  -5393.809590      -.027443                    
P 12  10725.807034  23351.964226  -6986.465108    -67.662020                    
V 12  -6944.774160  -5947.332788 -30243.475897       .036741                    
P 13 -10141.018944 -11148.872742  21731.183571    296.049098                    
V 13  13485.127181 -24352.009550  -6210.334422      -.009483                    
P 14  17586.078406  -8891.785442 -17581.462748     93.893779                    
V 14  -9021.784958  20801.866429 -19511.230791       .035964                    
P 15  -3224.922631  24585.688561  -9320.623159   -201.698296                    
V 15  -7314.751114   9840.991487  28557.659522       .050899                    
P 16   8201.172381 -13633.087919  21248.441003   -113.438971                    
V 16  15803.168338  21817.718518   8179.624317      -.033669                    
P 17 -17442.655579   5743.175055 -19001.740973    172.729192                    
V 17   9129.323612 -22710.700929 -15372.347392       .013041                    
P 18  19496.501987  15203.004655  -9902.766212     96.282654                    
V 18   4941.029237  12303.003576  27414.905878       .022433                    
P 19   5124.041771 -23936.500250  -9878.398669    -70.518879                    
V 19   8552.848055  -9772.468611  28398.843914      -.032431                    
P 20 -11843.953600 -22946.771923  -6487.581815     50.613677                    
V 20   7632.289667   4295.758509 -29682.125142      -.003161                    
P 21  24046.215898   5798.648414  10826.025092    -92.047408                    
V 21 -12760.397550   3855.285829  26563.725896      -.026782                    
P 22  18829.891449   3445.657395 -18278.743106    161.835186                    
V 22  11876.167251  20506.216246  15853.831226      -.007209                    
P 23  -3899.168618 -19816.997327  17061.635849    351.122949                    
V 23  10725.410187 -19066.601444 -20014.863556      -.018782                    
P 24  11150.162759 -14374.351374 -19210.444548    326.400312                    
V 24  24689.696512    272.100656  14330.048548       .032785                    
P 25  17755.839676  19402.816318   3639.501714    -43.564543                    
V 25    555.889951   5398.316353 -31313.406475      -.016967                    
P 26 -11547.400408  23644.263016  -1347.632926    -21.287904                    
V 26  -2467.617060   -134.729686  32609.349980      -.073076                    
P 27  -2911.180807  14822.559978 -21143.063221    194.130267                    
V 27 -28195.023596   3804.396827   6552.153951       .034968                    
P 28 -18867.577048  -7499.098941 -16789.473344     -1.429975                    
V 28 -11058.645892 -19223.697243  20151.107934       .015077                    
P 29  10240.961490  12636.697208  21084.653982    153.179795                    
V 29 -12238.016661  23604.435267  -8194.169183       .026478                    
P 30  18387.388464  18715.311222   3861.908306    283.232747                    
V 30   1109.939179   6050.764397 -31154.522555       .034464                    
P 31  23836.628288  -8317.325699   8747.932830     -4.643232                    
V 31  10882.066569    811.669753 -29408.330790       .032244                    
P 32  -5572.690940 -23735.943063 -10637.417844    -98.269780                    
V 32   9191.674808  10663.155045 -27392.801508      -.089125                    
EOF
